STARLINK-36385
1 67717U 26025AA  26090.83335647  .00038263  00000+0  12460-2 0  9995
2 67717  97.2867 203.2722 0001552  91.6618 153.2037 15.31745086  6008
